{
  "type": "FeatureCollection",
  "features": [
    {
      "type": "Feature",
      "properties": {
        "norad_id": 27954,
        "name": "GALAXY 13 (HORIZONS-1)",
        "group": "intelsat",
        "lat": -0.9064327292392538,
        "lon": 10.539757472019645,
        "alt_km": 35788.57182454969,
        "timestamp": "2025-12-17T04:57:44.067404+00:00",
        "meta_object_name": "GALAXY 13 (HORIZONS-1)",
        "meta_object_id": "2003-044A",
        "meta_epoch": "2025-12-16T16:04:06.760416",
        "meta_mean_motion": 1.00273297,
        "meta_eccentricity": 0.000209,
        "meta_inclination": 0.9462,
        "meta_ra_of_asc_node": 86.4194,
        "meta_arg_of_pericenter": 175.2776,
        "meta_mean_anomaly": 274.8903,
        "meta_ephemeris_type": 0,
        "meta_classification_type": "U",
        "meta_norad_cat_id": 27954,
        "meta_element_set_no": 999,
        "meta_rev_at_epoch": 4474,
        "meta_bstar": 0,
        "meta_mean_motion_dot": 1.56e-06,
        "meta_mean_motion_ddot": 0,
        "tle_line1": "1 27954U 03044A   25350.66952269  .00000156  00000+0  00000+0 0  9998",
        "tle_line2": "2 27954   0.9462  86.4194 0002090 175.2776 274.8903  1.00273297 44741"
      },
      "geometry": {
        "type": "Point",
        "coordinates": [
          10.539757472019645,
          -0.9064327292392538
        ]
      }
    },
    {
      "type": "Feature",
      "properties": {
        "norad_id": 28358,
        "name": "INTELSAT 10-02",
        "group": "intelsat",
        "lat": 0.01669427845770375,
        "lon": 159.5429745881559,
        "alt_km": 35789.12607121875,
        "timestamp": "2025-12-17T04:57:44.067416+00:00",
        "meta_object_name": "INTELSAT 10-02",
        "meta_object_id": "2004-022A",
        "meta_epoch": "2025-12-16T20:11:59.917344",
        "meta_mean_motion": 1.00272395,
        "meta_eccentricity": 9.43e-05,
        "meta_inclination": 0.0232,
        "meta_ra_of_asc_node": 70.5928,
        "meta_arg_of_pericenter": 233.5516,
        "meta_mean_anomaly": 83.6222,
        "meta_ephemeris_type": 0,
        "meta_classification_type": "U",
        "meta_norad_cat_id": 28358,
        "meta_element_set_no": 999,
        "meta_rev_at_epoch": 7872,
        "meta_bstar": 0,
        "meta_mean_motion_dot": 1.4e-07,
        "meta_mean_motion_ddot": 0,
        "tle_line1": "1 28358U 04022A   25350.84166571  .00000014  00000+0  00000+0 0  9990",
        "tle_line2": "2 28358   0.0232  70.5928 0000943 233.5516  83.6222  1.00272395 78723"
      },
      "geometry": {
        "type": "Point",
        "coordinates": [
          159.5429745881559,
          0.01669427845770375
        ]
      }
    },
    {
      "type": "Feature",
      "properties": {
        "norad_id": 28626,
        "name": "XM-3 (RHYTHM)",
        "group": "intelsat",
        "lat": -7.640106233982542e-05,
        "lon": -106.42097296908958,
        "alt_km": 36162.56681775992,
        "timestamp": "2025-12-17T04:57:44.067427+00:00",
        "meta_object_name": "XM-3 (RHYTHM)",
        "meta_object_id": "2005-008A",
        "meta_epoch": "2025-12-16T22:08:40.777152",
        "meta_mean_motion": 0.98950783,
        "meta_eccentricity": 0.00017701,
        "meta_inclination": 0.1853,
        "meta_ra_of_asc_node": 81.8397,
        "meta_arg_of_pericenter": 277.2143,
        "meta_mean_anomaly": 153.3637,
        "meta_ephemeris_type": 0,
        "meta_classification_type": "U",
        "meta_norad_cat_id": 28626,
        "meta_element_set_no": 999,
        "meta_rev_at_epoch": 4079,
        "meta_bstar": 0,
        "meta_mean_motion_dot": -1e-07,
        "meta_mean_motion_ddot": 0,
        "tle_line1": "1 28626U 05008A   25350.92269418 -.00000010  00000+0  00000+0 0  9993",
        "tle_line2": "2 28626   0.1853  81.8397 0001770 277.2143 153.3637  0.98950783 40797"
      },
      "geometry": {
        "type": "Point",
        "coordinates": [
          -106.42097296908958,
          -7.640106233982542e-05
        ]
      }
    },
    {
      "type": "Feature",
      "properties": {
        "norad_id": 28659,
        "name": "DIRECTV 8",
        "group": "intelsat",
        "lat": 0.03836264607404328,
        "lon": 41.49912579969376,
        "alt_km": 35793.18391138196,
        "timestamp": "2025-12-17T04:57:44.067438+00:00",
        "meta_object_name": "DIRECTV 8",
        "meta_object_id": "2005-019A",
        "meta_epoch": "2025-12-16T16:12:44.660160",
        "meta_mean_motion": 1.00272768,
        "meta_eccentricity": 0.00028694,
        "meta_inclination": 0.0167,
        "meta_ra_of_asc_node": 319.8619,
        "meta_arg_of_pericenter": 314.1922,
        "meta_mean_anomaly": 295.6578,
        "meta_ephemeris_type": 0,
        "meta_classification_type": "U",
        "meta_norad_cat_id": 28659,
        "meta_element_set_no": 999,
        "meta_rev_at_epoch": 7524,
        "meta_bstar": 0,
        "meta_mean_motion_dot": 2.5e-07,
        "meta_mean_motion_ddot": 0,
        "tle_line1": "1 28659U 05019A   25350.67551690  .00000025  00000+0  00000+0 0  9994",
        "tle_line2": "2 28659   0.0167 319.8619 0002869 314.1922 295.6578  1.00272768 75243"
      },
      "geometry": {
        "type": "Point",
        "coordinates": [
          41.49912579969376,
          0.03836264607404328
        ]
      }
    },
    {
      "type": "Feature",
      "properties": {
        "norad_id": 28702,
        "name": "GALAXY 28 (G-28)",
        "group": "intelsat",
        "lat": -0.4367780713320155,
        "lon": 71.83488148255249,
        "alt_km": 35797.95500953806,
        "timestamp": "2025-12-17T04:57:44.067449+00:00",
        "meta_object_name": "GALAXY 28 (G-28)",
        "meta_object_id": "2005-022A",
        "meta_epoch": "2025-12-16T19:47:01.643712",
        "meta_mean_motion": 1.00270923,
        "meta_eccentricity": 0.00028933,
        "meta_inclination": 2.8297,
        "meta_ra_of_asc_node": 81.2353,
        "meta_arg_of_pericenter": 190.2574,
        "meta_mean_anomaly": 22.2764,
        "meta_ephemeris_type": 0,
        "meta_classification_type": "U",
        "meta_norad_cat_id": 28702,
        "meta_element_set_no": 999,
        "meta_rev_at_epoch": 5014,
        "meta_bstar": 0,
        "meta_mean_motion_dot": -1.65e-06,
        "meta_mean_motion_ddot": 0,
        "tle_line1": "1 28702U 05022A   25350.82432458 -.00000165  00000+0  00000+0 0  9990",
        "tle_line2": "2 28702   2.8297  81.2353 0002893 190.2574  22.2764  1.00270923 50148"
      },
      "geometry": {
        "type": "Point",
        "coordinates": [
          71.83488148255249,
          -0.4367780713320155
        ]
      }
    },
    {
      "type": "Feature",
      "properties": {
        "norad_id": 29236,
        "name": "GALAXY 16 (G-16)",
        "group": "intelsat",
        "lat": 0.01568444231377814,
        "lon": 61.51992765760031,
        "alt_km": 35795.70539972217,
        "timestamp": "2025-12-17T04:57:44.067460+00:00",
        "meta_object_name": "GALAXY 16 (G-16)",
        "meta_object_id": "2006-023A",
        "meta_epoch": "2025-12-16T19:43:54.441696",
        "meta_mean_motion": 1.00272373,
        "meta_eccentricity": 0.00024693,
        "meta_inclination": 0.0333,
        "meta_ra_of_asc_node": 221.4079,
        "meta_arg_of_pericenter": 40.9552,
        "meta_mean_anomaly": 20.3221,
        "meta_ephemeris_type": 0,
        "meta_classification_type": "U",
        "meta_norad_cat_id": 29236,
        "meta_element_set_no": 999,
        "meta_rev_at_epoch": 7114,
        "meta_bstar": 0,
        "meta_mean_motion_dot": -1.03e-06,
        "meta_mean_motion_ddot": 0,
        "tle_line1": "1 29236U 06023A   25350.82215789 -.00000103  00000+0  00000+0 0  9993",
        "tle_line2": "2 29236   0.0333 221.4079 0002469  40.9552  20.3221  1.00272373 71142"
      },
      "geometry": {
        "type": "Point",
        "coordinates": [
          61.51992765760031,
          0.01568444231377814
        ]
      }
    },
    {
      "type": "Feature",
      "properties": {
        "norad_id": 29494,
        "name": "DIRECTV 9S",
        "group": "intelsat",
        "lat": -0.7638219698870939,
        "lon": 59.32861219570991,
        "alt_km": 35796.44925631016,
        "timestamp": "2025-12-17T04:57:44.067471+00:00",
        "meta_object_name": "DIRECTV 9S",
        "meta_object_id": "2006-043A",
        "meta_epoch": "2025-12-16T16:17:59.157888",
        "meta_mean_motion": 1.00271928,
        "meta_eccentricity": 0.00028392,
        "meta_inclination": 1.95,
        "meta_ra_of_asc_node": 83.1705,
        "meta_arg_of_pericenter": 187.3504,
        "meta_mean_anomaly": 318.3309,
        "meta_ephemeris_type": 0,
        "meta_classification_type": "U",
        "meta_norad_cat_id": 29494,
        "meta_element_set_no": 999,
        "meta_rev_at_epoch": 4955,
        "meta_bstar": 0,
        "meta_mean_motion_dot": -9.1e-07,
        "meta_mean_motion_ddot": 0,
        "tle_line1": "1 29494U 06043A   25350.67915692 -.00000091  00000+0  00000+0 0  9990",
        "tle_line2": "2 29494   1.9500  83.1705 0002839 187.3504 318.3309  1.00271928 49559"
      },
      "geometry": {
        "type": "Point",
        "coordinates": [
          59.32861219570991,
          -0.7638219698870939
        ]
      }
    }
  ]
}